{
  "type": "FeatureCollection",
  "features": [
    {
      "type": "Feature",
      "properties": {
        "norad_id": 33886,
        "name": "IRIDIUM 33 DEB",
        "group": "iridium-33-debris",
        "lat": 49.04509142817539,
        "lon": -115.54827017127914,
        "alt_km": 772.0793320190633,
        "timestamp": "2025-12-09T09:46:48.030452+00:00",
        "meta_object_name": "IRIDIUM 33 DEB",
        "meta_object_id": "1997-051BF",
        "meta_epoch": "2025-12-09T04:26:46.394016",
        "meta_mean_motion": 14.36044861,
        "meta_eccentricity": 0.001213,
        "meta_inclination": 86.383,
        "meta_ra_of_asc_node": 68.7247,
        "meta_arg_of_pericenter": 255.409,
        "meta_mean_anomaly": 167.2504,
        "meta_ephemeris_type": 0,
        "meta_classification_type": "U",
        "meta_norad_cat_id": 33886,
        "meta_element_set_no": 999,
        "meta_rev_at_epoch": 88001,
        "meta_bstar": 0.00031056,
        "meta_mean_motion_dot": 9.23e-06,
        "meta_mean_motion_ddot": 0,
        "tle_line1": "1 33886U 97051BF  25343.18525919  .00000923  00000+0  31056-3 0  9998",
        "tle_line2": "2 33886  86.3830  68.7247 0012130 255.4090 167.2504 14.36044861880013"
      },
      "geometry": {
        "type": "Point",
        "coordinates": [
          -115.54827017127914,
          49.04509142817539
        ]
      }
    },
    {
      "type": "Feature",
      "properties": {
        "norad_id": 33887,
        "name": "IRIDIUM 33 DEB",
        "group": "iridium-33-debris",
        "lat": 52.886588140458116,
        "lon": 9.728124536454086,
        "alt_km": 765.7978998891613,
        "timestamp": "2025-12-09T09:46:48.030463+00:00",
        "meta_object_name": "IRIDIUM 33 DEB",
        "meta_object_id": "1997-051BG",
        "meta_epoch": "2025-12-09T03:09:21.273408",
        "meta_mean_motion": 14.37215839,
        "meta_eccentricity": 0.0004187,
        "meta_inclination": 86.3047,
        "meta_ra_of_asc_node": 4.9474,
        "meta_arg_of_pericenter": 243.0697,
        "meta_mean_anomaly": 182.8985,
        "meta_ephemeris_type": 0,
        "meta_classification_type": "U",
        "meta_norad_cat_id": 33887,
        "meta_element_set_no": 999,
        "meta_rev_at_epoch": 88113,
        "meta_bstar": 0.00021375,
        "meta_mean_motion_dot": 6.56e-06,
        "meta_mean_motion_ddot": 0,
        "tle_line1": "1 33887U 97051BG  25343.13149622  .00000656  00000+0  21375-3 0  9993",
        "tle_line2": "2 33887  86.3047   4.9474 0004187 243.0697 182.8985 14.37215839881133"
      },
      "geometry": {
        "type": "Point",
        "coordinates": [
          9.728124536454086,
          52.886588140458116
        ]
      }
    },
    {
      "type": "Feature",
      "properties": {
        "norad_id": 33953,
        "name": "IRIDIUM 33 DEB",
        "group": "iridium-33-debris",
        "lat": 51.66490652477484,
        "lon": 59.812335038620816,
        "alt_km": 697.3718640847201,
        "timestamp": "2025-12-09T09:46:48.030473+00:00",
        "meta_object_name": "IRIDIUM 33 DEB",
        "meta_object_id": "1997-051BN",
        "meta_epoch": "2025-12-08T15:57:49.131936",
        "meta_mean_motion": 14.55261918,
        "meta_eccentricity": 0.0018478,
        "meta_inclination": 86.3841,
        "meta_ra_of_asc_node": 55.5477,
        "meta_arg_of_pericenter": 115.1859,
        "meta_mean_anomaly": 10.2465,
        "meta_ephemeris_type": 0,
        "meta_classification_type": "U",
        "meta_norad_cat_id": 33953,
        "meta_element_set_no": 999,
        "meta_rev_at_epoch": 88244,
        "meta_bstar": 0.0018443,
        "meta_mean_motion_dot": 8.026e-05,
        "meta_mean_motion_ddot": 0,
        "tle_line1": "1 33953U 97051BN  25342.66515199  .00008026  00000+0  18443-2 0  9990",
        "tle_line2": "2 33953  86.3841  55.5477 0018478 115.1859  10.2465 14.55261918882442"
      },
      "geometry": {
        "type": "Point",
        "coordinates": [
          59.812335038620816,
          51.66490652477484
        ]
      }
    },
    {
      "type": "Feature",
      "properties": {
        "norad_id": 33960,
        "name": "IRIDIUM 33 DEB",
        "group": "iridium-33-debris",
        "lat": -39.9558148800388,
        "lon": 114.23179029164946,
        "alt_km": 625.1180695383073,
        "timestamp": "2025-12-09T09:46:48.030484+00:00",
        "meta_object_name": "IRIDIUM 33 DEB",
        "meta_object_id": "1997-051BV",
        "meta_epoch": "2025-12-08T21:44:18.324960",
        "meta_mean_motion": 14.8486698,
        "meta_eccentricity": 0.00073075,
        "meta_inclination": 86.2537,
        "meta_ra_of_asc_node": 291.3214,
        "meta_arg_of_pericenter": 67.9979,
        "meta_mean_anomaly": 351.6449,
        "meta_ephemeris_type": 0,
        "meta_classification_type": "U",
        "meta_norad_cat_id": 33960,
        "meta_element_set_no": 999,
        "meta_rev_at_epoch": 88810,
        "meta_bstar": 0.0037227683,
        "meta_mean_motion_dot": 0.00031788,
        "meta_mean_motion_ddot": 0,
        "tle_line1": "1 33960U 97051BV  25342.90576765  .00031788  00000+0  37228-2 0  9994",
        "tle_line2": "2 33960  86.2537 291.3214 0007307  67.9979 351.6449 14.84866980888101"
      },
      "geometry": {
        "type": "Point",
        "coordinates": [
          114.23179029164946,
          -39.9558148800388
        ]
      }
    },
    {
      "type": "Feature",
      "properties": {
        "norad_id": 33966,
        "name": "IRIDIUM 33 DEB",
        "group": "iridium-33-debris",
        "lat": -66.40021728902983,
        "lon": -124.23952115627719,
        "alt_km": 731.0000746329251,
        "timestamp": "2025-12-09T09:46:48.030496+00:00",
        "meta_object_name": "IRIDIUM 33 DEB",
        "meta_object_id": "1997-051CB",
        "meta_epoch": "2025-12-08T16:37:01.548192",
        "meta_mean_motion": 14.49569326,
        "meta_eccentricity": 0.00069456,
        "meta_inclination": 86.3923,
        "meta_ra_of_asc_node": 47.7641,
        "meta_arg_of_pericenter": 202.0511,
        "meta_mean_anomaly": 275.0616,
        "meta_ephemeris_type": 0,
        "meta_classification_type": "U",
        "meta_norad_cat_id": 33966,
        "meta_element_set_no": 999,
        "meta_rev_at_epoch": 88383,
        "meta_bstar": 0.00096318773,
        "meta_mean_motion_dot": 3.715e-05,
        "meta_mean_motion_ddot": 0,
        "tle_line1": "1 33966U 97051CB  25342.69237903  .00003715  00000+0  96319-3 0  9990",
        "tle_line2": "2 33966  86.3923  47.7641 0006945 202.0511 275.0616 14.49569326883830"
      },
      "geometry": {
        "type": "Point",
        "coordinates": [
          -124.23952115627719,
          -66.40021728902983
        ]
      }
    },
    {
      "type": "Feature",
      "properties": {
        "norad_id": 34071,
        "name": "IRIDIUM 33 DEB",
        "group": "iridium-33-debris",
        "lat": -45.51858631205553,
        "lon": 15.545350584225483,
        "alt_km": 740.934999908277,
        "timestamp": "2025-12-09T09:46:48.030506+00:00",
        "meta_object_name": "IRIDIUM 33 DEB",
        "meta_object_id": "1997-051CE",
        "meta_epoch": "2025-12-09T03:21:46.783584",
        "meta_mean_motion": 14.49438842,
        "meta_eccentricity": 0.0009805,
        "meta_inclination": 86.3456,
        "meta_ra_of_asc_node": 19.3928,
        "meta_arg_of_pericenter": 117.2084,
        "meta_mean_anomaly": 243.0121,
        "meta_ephemeris_type": 0,
        "meta_classification_type": "U",
        "meta_norad_cat_id": 34071,
        "meta_element_set_no": 999,
        "meta_rev_at_epoch": 88282,
        "meta_bstar": 0.00075639,
        "meta_mean_motion_dot": 2.915e-05,
        "meta_mean_motion_ddot": 0,
        "tle_line1": "1 34071U 97051CE  25343.14012481  .00002915  00000+0  75639-3 0  9994",
        "tle_line2": "2 34071  86.3456  19.3928 0009805 117.2084 243.0121 14.49438842882824"
      },
      "geometry": {
        "type": "Point",
        "coordinates": [
          15.545350584225483,
          -45.51858631205553
        ]
      }
    },
    {
      "type": "Feature",
      "properties": {
        "norad_id": 34077,
        "name": "IRIDIUM 33 DEB",
        "group": "iridium-33-debris",
        "lat": -27.127995010187576,
        "lon": 51.11963737665342,
        "alt_km": 681.9837832397097,
        "timestamp": "2025-12-09T09:46:48.030518+00:00",
        "meta_object_name": "IRIDIUM 33 DEB",
        "meta_object_id": "1997-051CL",
        "meta_epoch": "2025-12-08T16:24:26.669664",
        "meta_mean_motion": 14.64746449,
        "meta_eccentricity": 0.00106018,
        "meta_inclination": 86.3858,
        "meta_ra_of_asc_node": 53.2941,
        "meta_arg_of_pericenter": 52.2833,
        "meta_mean_anomaly": 66.251,
        "meta_ephemeris_type": 0,
        "meta_classification_type": "U",
        "meta_norad_cat_id": 34077,
        "meta_element_set_no": 999,
        "meta_rev_at_epoch": 88273,
        "meta_bstar": 0.0022935855,
        "meta_mean_motion_dot": 0.00012259,
        "meta_mean_motion_ddot": 0,
        "tle_line1": "1 34077U 97051CL  25342.68364201  .00012259  00000+0  22936-2 0  9991",
        "tle_line2": "2 34077  86.3858  53.2941 0010601  52.2833  66.2510 14.64746449882733"
      },
      "geometry": {
        "type": "Point",
        "coordinates": [
          51.11963737665342,
          -27.127995010187576
        ]
      }
    }
  ]
}